{"type": "FeatureCollection", "features": [ {"type": "Feature", "properties": {"norad_id": 42969, "name": "SENTINEL-5P", "group": "resource", "lat": -55.72011260346365, "lon": 94.25027390277891, "alt_km": 834.6052683134367, "timestamp": "2025-12-14T18:52:55.155747+00:00", "meta": {"OBJECT_NAME": "SENTINEL-5P", "OBJECT_ID": "2017-064A", "EPOCH": "2025-12-13T19:46:43.973184", "MEAN_MOTION": 14.19517942, "ECCENTRICITY": 9.707e-05, "INCLINATION": 98.7784, "RA_OF_ASC_NODE": 286.3986, "ARG_OF_PERICENTER": 88.5825, "MEAN_ANOMALY": 271.5462, "EPHEMERIS_TYPE": 0, "CLASSIFICATION_TYPE": "U", "NORAD_CAT_ID": 42969, "ELEMENT_SET_NO": 999, "REV_AT_EPOCH": 42326, "BSTAR": 8.385383e-05, "MEAN_MOTION_DOT": 1.33e-06, "MEAN_MOTION_DDOT": 0}, "tle": {"line1": "1 42969U 17064A   25347.82412006  .00000133  00000+0  83854-4 0  9990", "line2": "2 42969  98.7784 286.3986 0000970  88.5825 271.5462 14.19517942423266"}}, "geometry": {"type": "Point", "coordinates": [94.25027390277891, -55.72011260346365]}}, {"type": "Feature", "properties": {"norad_id": 42987, "name": "SKYSAT-C11", "group": "resource", "lat": -31.66096366580382, "lon": -58.2771997042407, "alt_km": 430.29944706412334, "timestamp": "2025-12-14T18:52:55.155758+00:00", "meta": {"OBJECT_NAME": "SKYSAT-C11", "OBJECT_ID": "2017-068A", "EPOCH": "2025-12-13T21:47:42.260928", "MEAN_MOTION": 15.47511727, "ECCENTRICITY": 0.0001044, "INCLINATION": 97.4137, "RA_OF_ASC_NODE": 125.4283, "ARG_OF_PERICENTER": 104.7272, "MEAN_ANOMALY": 255.4093, "EPHEMERIS_TYPE": 0, "CLASSIFICATION_TYPE": "U", "NORAD_CAT_ID": 42987, "ELEMENT_SET_NO": 999, "REV_AT_EPOCH": 45449, "BSTAR": 0.0004554518, "MEAN_MOTION_DOT": 0.00023347, "MEAN_MOTION_DDOT": 0}, "tle": {"line1": "1 42987U 17068A   25347.90812802  .00023347  00000+0  45545-3 0  9997", "line2": "2 42987  97.4137 125.4283 0001044 104.7272 255.4093 15.47511727454494"}}, "geometry": {"type": "Point", "coordinates": [-58.2771997042407, -31.66096366580382]}}, {"type": "Feature", "properties": {"norad_id": 42988, "name": "SKYSAT-C10", "group": "resource", "lat": 0.8443290757018096, "lon": -60.24716206560406, "alt_km": 471.95912255664825, "timestamp": "2025-12-14T18:52:55.155769+00:00", "meta": {"OBJECT_NAME": "SKYSAT-C10", "OBJECT_ID": "2017-068B", "EPOCH": "2025-12-13T21:43:34.758624", "MEAN_MOTION": 15.32096942, "ECCENTRICITY": 0.00053821, "INCLINATION": 97.4253, "RA_OF_ASC_NODE": 118.759, "ARG_OF_PERICENTER": 100.2899, "MEAN_ANOMALY": 259.8949, "EPHEMERIS_TYPE": 0, "CLASSIFICATION_TYPE": "U", "NORAD_CAT_ID": 42988, "ELEMENT_SET_NO": 999, "REV_AT_EPOCH": 45397, "BSTAR": 0.00042578818, "MEAN_MOTION_DOT": 0.0001313, "MEAN_MOTION_DDOT": 0}, "tle": {"line1": "1 42988U 17068B   25347.90526341  .00013130  00000+0  42579-3 0  9991", "line2": "2 42988  97.4253 118.7590 0005382 100.2899 259.8949 15.32096942453976"}}, "geometry": {"type": "Point", "coordinates": [-60.24716206560406, 0.8443290757018096]}}, {"type": "Feature", "properties": {"norad_id": 42989, "name": "SKYSAT-C9", "group": "resource", "lat": 55.07064620767681, "lon": 108.30340088817736, "alt_km": 445.8170788864809, "timestamp": "2025-12-14T18:52:55.155779+00:00", "meta": {"OBJECT_NAME": "SKYSAT-C9", "OBJECT_ID": "2017-068C", "EPOCH": "2025-12-13T22:18:57.844224", "MEAN_MOTION": 15.36090896, "ECCENTRICITY": 0.001063, "INCLINATION": 97.4183, "RA_OF_ASC_NODE": 118.1925, "ARG_OF_PERICENTER": 83.6257, "MEAN_ANOMALY": 276.6197, "EPHEMERIS_TYPE": 0, "CLASSIFICATION_TYPE": "U", "NORAD_CAT_ID": 42989, "ELEMENT_SET_NO": 999, "REV_AT_EPOCH": 45426, "BSTAR": 0.00043719245, "MEAN_MOTION_DOT": 0.00015328, "MEAN_MOTION_DDOT": 0}, "tle": {"line1": "1 42989U 17068C   25347.92983616  .00015328  00000+0  43719-3 0  9994", "line2": "2 42989  97.4183 118.1925 0010630  83.6257 276.6197 15.36090896454260"}}, "geometry": {"type": "Point", "coordinates": [108.30340088817736, 55.07064620767681]}}, {"type": "Feature", "properties": {"norad_id": 42990, "name": "SKYSAT-C8", "group": "resource", "lat": 3.503412214620765, "lon": 118.33760502029806, "alt_km": 468.61624662659324, "timestamp": "2025-12-14T18:52:55.155790+00:00", "meta": {"OBJECT_NAME": "SKYSAT-C8", "OBJECT_ID": "2017-068D", "EPOCH": "2025-12-13T22:30:02.820096", "MEAN_MOTION": 15.32955808, "ECCENTRICITY": 0.00015196, "INCLINATION": 97.4275, "RA_OF_ASC_NODE": 117.9425, "ARG_OF_PERICENTER": 343.0823, "MEAN_ANOMALY": 17.0368, "EPHEMERIS_TYPE": 0, "CLASSIFICATION_TYPE": "U", "NORAD_CAT_ID": 42990, "ELEMENT_SET_NO": 999, "REV_AT_EPOCH": 45389, "BSTAR": 0.00041268299, "MEAN_MOTION_DOT": 0.00013066, "MEAN_MOTION_DDOT": 0}, "tle": {"line1": "1 42990U 17068D   25347.93753264  .00013066  00000+0  41268-3 0  9995", "line2": "2 42990  97.4275 117.9425 0001519 343.0823  17.0368 15.32955808453898"}}, "geometry": {"type": "Point", "coordinates": [118.33760502029806, 3.503412214620765]}}, {"type": "Feature", "properties": {"norad_id": 42991, "name": "SKYSAT-C7", "group": "resource", "lat": -34.489905160345174, "lon": -65.30782146764928, "alt_km": 480.03993710220675, "timestamp": "2025-12-14T18:52:55.155800+00:00", "meta": {"OBJECT_NAME": "SKYSAT-C7", "OBJECT_ID": "2017-068E", "EPOCH": "2025-12-13T20:00:25.954272", "MEAN_MOTION": 15.32357322, "ECCENTRICITY": 0.00076001, "INCLINATION": 97.4283, "RA_OF_ASC_NODE": 118.8786, "ARG_OF_PERICENTER": 53.5577, "MEAN_ANOMALY": 306.6364, "EPHEMERIS_TYPE": 0, "CLASSIFICATION_TYPE": "U", "NORAD_CAT_ID": 42991, "ELEMENT_SET_NO": 999, "REV_AT_EPOCH": 45394, "BSTAR": 0.000416982, "MEAN_MOTION_DOT": 0.00012968, "MEAN_MOTION_DDOT": 0}, "tle": {"line1": "1 42991U 17068E   25347.83363373  .00012968  00000+0  41698-3 0  9990", "line2": "2 42991  97.4283 118.8786 0007600  53.5577 306.6364 15.32357322453940"}}, "geometry": {"type": "Point", "coordinates": [-65.30782146764928, -34.489905160345174]}}, {"type": "Feature", "properties": {"norad_id": 42992, "name": "SKYSAT-C6", "group": "resource", "lat": -34.37879580593684, "lon": 125.39526957058436, "alt_km": 478.74961669920594, "timestamp": "2025-12-14T18:52:55.155811+00:00", "meta": {"OBJECT_NAME": "SKYSAT-C6", "OBJECT_ID": "2017-068F", "EPOCH": "2025-12-13T21:04:49.027008", "MEAN_MOTION": 15.31520469, "ECCENTRICITY": 0.00051491, "INCLINATION": 97.4317, "RA_OF_ASC_NODE": 119.3609, "ARG_OF_PERICENTER": 79.1268, "MEAN_ANOMALY": 281.0552, "EPHEMERIS_TYPE": 0, "CLASSIFICATION_TYPE": "U", "NORAD_CAT_ID": 42992, "ELEMENT_SET_NO": 999, "REV_AT_EPOCH": 45393, "BSTAR": 0.00040769648, "MEAN_MOTION_DOT": 0.00012343, "MEAN_MOTION_DDOT": 0}, "tle": {"line1": "1 42992U 17068F   25347.87834522  .00012343  00000+0  40770-3 0  9991", "line2": "2 42992  97.4317 119.3609 0005149  79.1268 281.0552 15.31520469453933"}}, "geometry": {"type": "Point", "coordinates": [125.39526957058436, -34.37879580593684]}}, {"type": "Feature", "properties": {"norad_id": 43111, "name": "CARTOSAT-2F", "group": "resource", "lat": -18.06202007863985, "lon": 48.83072014510902, "alt_km": 513.7255111099948, "timestamp": "2025-12-14T18:52:55.155821+00:00", "meta": {"OBJECT_NAME": "CARTOSAT-2F", "OBJECT_ID": "2018-004A", "EPOCH": "2025-12-13T23:59:37.612896", "MEAN_MOTION": 15.19292995, "ECCENTRICITY": 0.00010983, "INCLINATION": 97.432, "RA_OF_ASC_NODE": 45.6165, "ARG_OF_PERICENTER": 137.7125, "MEAN_ANOMALY": 222.4195, "EPHEMERIS_TYPE": 0, "CLASSIFICATION_TYPE": "U", "NORAD_CAT_ID": 43111, "ELEMENT_SET_NO": 999, "REV_AT_EPOCH": 43921, "BSTAR": 0.0002778104, "MEAN_MOTION_DOT": 5.795e-05, "MEAN_MOTION_DDOT": 0}, "tle": {"line1": "1 43111U 18004A   25347.99974089  .00005795  00000+0  27781-3 0  9992", "line2": "2 43111  97.4320  45.6165 0001098 137.7125 222.4195 15.19292995439214"}}, "geometry": {"type": "Point", "coordinates": [48.83072014510902, -18.06202007863985]}}, {"type": "Feature", "properties": {"norad_id": 43259, "name": "GAOFEN-1 02", "group": "resource", "lat": 26.647292653771213, "lon": -129.33522581245728, "alt_km": 638.9519843083835, "timestamp": "2025-12-14T18:52:55.155832+00:00", "meta": {"OBJECT_NAME": "GAOFEN-1 02", "OBJECT_ID": "2018-031A", "EPOCH": "2025-12-14T00:17:57.987744", "MEAN_MOTION": 14.76421352, "ECCENTRICITY": 0.00018159, "INCLINATION": 98.0807, "RA_OF_ASC_NODE": 45.8021, "ARG_OF_PERICENTER": 211.7046, "MEAN_ANOMALY": 148.4054, "EPHEMERIS_TYPE": 0, "CLASSIFICATION_TYPE": "U", "NORAD_CAT_ID": 43259, "ELEMENT_SET_NO": 999, "REV_AT_EPOCH": 41537, "BSTAR": 0.00026696955, "MEAN_MOTION_DOT": 1.804e-05, "MEAN_MOTION_DDOT": 0}, "tle": {"line1": "1 43259U 18031A   25348.01247671  .00001804  00000+0  26697-3 0  9991", "line2": "2 43259  98.0807  45.8021 0001815 211.7046 148.4054 14.76421352415374"}}, "geometry": {"type": "Point", "coordinates": [-129.33522581245728, 26.647292653771213]}}, {"type": "Feature", "properties": {"norad_id": 43260, "name": "GAOFEN-1 03", "group": "resource", "lat": -81.73784032395552, "lon": 148.4153359463377, "alt_km": 646.9835975198821, "timestamp": "2025-12-14T18:52:55.155842+00:00", "meta": {"OBJECT_NAME": "GAOFEN-1 03", "OBJECT_ID": "2018-031B", "EPOCH": "2025-12-13T23:46:42.943584", "MEAN_MOTION": 14.76440028, "ECCENTRICITY": 0.00019193, "INCLINATION": 98.0798, "RA_OF_ASC_NODE": 45.6573, "ARG_OF_PERICENTER": 316.3834, "MEAN_ANOMALY": 43.7224, "EPHEMERIS_TYPE": 0, "CLASSIFICATION_TYPE": "U", "NORAD_CAT_ID": 43260, "ELEMENT_SET_NO": 999, "REV_AT_EPOCH": 41536, "BSTAR": 0.00019726522, "MEAN_MOTION_DOT": 1.32e-05, "MEAN_MOTION_DDOT": 0}, "tle": {"line1": "1 43260U 18031B   25347.99077481  .00001320  00000+0  19727-3 0  9998", "line2": "2 43260  98.0798  45.6573 0001919 316.3834  43.7224 14.76440028415363"}}, "geometry": {"type": "Point", "coordinates": [148.4153359463377, -81.73784032395552]}}]}